ONEWEB-0504             
1 54122U 22138K   24116.47151951  .00000067  00000+0  13509-3 0  9990
2 54122  87.9105 100.7490 0001543  83.1128 277.0180 13.19725850 73593
ONEWEB-0505             
1 54123U 22138L   24116.46836026  .00000107  00000+0  23499-3 0  9997
2 54123  87.9103 100.7450 0001213  99.8072 260.3197 13.19726403 73570
ONEWEB-0506             
1 54124U 22138M   24116.51890717  .00000135  00000+0  30419-3 0  9992
2 54124  87.9103 100.7320 0001669  93.5397 266.5927 13.19726349 73571
ONEWEB-0507             
1 54125U 22138N   24116.46362367  .00000079  00000+0  16399-3 0  9990
2 54125  87.9111 100.7597 0001723  95.5430 264.5899 13.19726493 73619
ONEWEB-0508             
1 54126U 22138P   24116.46045463  .00000135  00000+0  30572-3 0  9998
2 54126  87.9108 100.7553 0001625  99.0128 261.1189 13.19727905 73593
ONEWEB-0509             
1 54127U 22138Q   24116.51100652  .00000181  00000+0  41967-3 0  9998
2 54127  87.9093 100.7380 0001753  83.3313 276.8020 13.19725288 73576
ONEWEB-0510             
1 54128U 22138R   24116.41233872  .00000022  00000+0  22984-4 0  9992
2 54128  87.9193  70.1815 0002335  89.7958 270.3442 13.20771397 75958
ONEWEB-0511             
1 54129U 22138S   24116.50784915  .00000107  00000+0  23495-3 0  9993
2 54129  87.9100 100.7387 0001688  74.7390 285.3929 13.19726877 73602
